{"fetched_at":"2026-04-01T16:59:04Z","count":11445,"tles":[{"name":"RASSVET-3 OBJECT G","line1":"1 68366U 26061G   26090.65717145  .00061830  18010-6  21483-3 0  9992","line2":"2 68366  82.2970  99.7112 0026925  44.6743 315.6691 15.88611878  1263","category":"Other"}]}